{"idElset":"fbaca206-a176-4c61-89a2-69b58acf9f9c",
"classificationMarking":"U",
"satNo":43435,
"epoch":"2025-01-28T17:30:10.014912Z",
"meanMotion":0.06955812,
"idOnOrbit":"43435",
"eccentricity":0.3764494,
"inclination":53.2896,
"raan":53.7696,
"argOfPerigee":112.3476,
"meanAnomaly":355.8605,
"revNo":118,
"bStar":0.0,
"meanMotionDot":-1.059E-5,
"meanMotionDDot":0.0,
"semiMajorAxis":249748.728,
"period":20702.112,
"apogee":343766.48600000003,
"perigee":155730.969,
"line1":"1 43435U 18038A   25028.72928258 -.00001059 +00000+0 +00000+0 0 99992",
"line2":"2 43435  53.2896  53.7696 3764494 112.3476 355.8605 00.06955812001189",
"createdAt":"2025-01-13T15:05:18.412Z",
"createdBy":"system.ob-ingest",
"source":"18th SPCS",
"dataMode":"REAL",
"algorithm":"SGP4",
"origNetwork":"OPS1"}